[{"OBJECT_NAME":"SINOD-D 1","OBJECT_ID":"2015-058E","EPOCH":"2026-03-09T16:57:39.773376","MEAN_MOTION":14.95054547,"ECCENTRICITY":0.01172808,"INCLINATION":64.7759,"RA_OF_ASC_NODE":210.2419,"ARG_OF_PERICENTER":93.1753,"MEAN_ANOMALY":268.2787,"EPHEMERIS_TYPE":0,"CLASSIFICATION_TYPE":"U","NORAD_CAT_ID":40968,"ELEMENT_SET_NO":999,"REV_AT_EPOCH":10178,"BSTAR":0.00050694767,"MEAN_MOTION_DOT":6.216e-5,"MEAN_MOTION_DDOT":0},{"OBJECT_NAME":"KINEIS-3E","OBJECT_ID":"2024-172C","EPOCH":"2026-03-09T18:10:24.014496","MEAN_MOTION":14.72309398,"ECCENTRICITY":0.0001612,"INCLINATION":98.0288,"RA_OF_ASC_NODE":159.764,"ARG_OF_PERICENTER":104.7696,"MEAN_ANOMALY":255.369,"EPHEMERIS_TYPE":0,"CLASSIFICATION_TYPE":"U","NORAD_CAT_ID":61222,"ELEMENT_SET_NO":999,"REV_AT_EPOCH":7872,"BSTAR":0.00046314644,"MEAN_MOTION_DOT":2.879e-5,"MEAN_MOTION_DDOT":0}]
